KUIPER-00008            
1 63724U 25088A   26061.91668981 -.01480588  00000+0 -14230+0 0  9992
2 63724  51.8917 117.9121 0010589  73.7742 292.3800 14.95669324  5132
KUIPER-00009            
1 63725U 25088B   26061.62473302 -.00004140  00000+0 -51331-3 0  9994
2 63725  51.9029 137.8783 0008756  75.6640 284.5294 14.79970879 46737
KUIPER-00010            
1 63726U 25088C   26061.48193488  .00002221  00000+0  32020-3 0  9993
2 63726  51.9018 114.9654 0000523  71.4953 288.6066 14.79944180 46664
KUIPER-00011            
1 63727U 25088D   26061.57487881  .00005010  00000+0  68427-3 0  9996
2 63727  51.8995 122.1167 0000393  64.0160 296.0842 14.80017791 46702
KUIPER-00012            
1 63728U 25088E   26061.91668981 -.00009278  00000+0 -11707-2 0  9997
2 63728  51.8993 105.5345 0002389 357.8773 114.8378 14.80595429  5710
KUIPER-00013            
1 63729U 25088F   26061.62369929  .00003457  00000+0  48345-3 0  9996
2 63729  51.9009 139.3406 0002958  24.6745 335.4358 14.79831205 46529
KUIPER-00014            
1 63730U 25088G   26061.55452257  .00006834  00000+0  92376-3 0  9992
2 63730  51.9010 140.6183 0000366  23.4916 336.6063 14.79969732 46318
KUIPER-00015            
1 63731U 25088H   26061.64992204  .00007705  00000+0  95237-3 0  9991
2 63731  51.8990 149.6456 0009709  52.1816 308.0025 14.83560321 46659
KUIPER-00016            
1 63732U 25088J   26061.48432353  .00005429  00000+0  74135-3 0  9993
2 63732  51.8997 143.4592 0006522  55.0941 305.0633 14.79884692 46265
KUIPER-00018            
1 63733U 25088K   26061.91668981  .00007142  00000+0  96102-3 0  9992
2 63733  51.9015 130.5172 0004337  78.8705 359.4603 14.80104314  2734
KUIPER-00019            
1 63734U 25088L   26061.63295326 -.00000293  00000+0 -94610-5 0  9997
2 63734  51.8998 130.3009 0000674  98.9206 261.1833 14.79933183 46464
KUIPER-00020            
1 63735U 25088M   26061.62916616  .00002506  00000+0  35819-3 0  9990
2 63735  51.9012 134.3098 0006687  62.9051 297.2593 14.79876089 46615
KUIPER-00021            
1 63736U 25088N   26061.49253894  .00021576  00000+0  28485-2 0  9996
2 63736  51.9001 135.9098 0003354  67.9058 292.2261 14.79955913 46410
KUIPER-00023            
1 63737U 25088P   26061.49138905 -.00007526  00000+0 -95829-3 0  9990
2 63737  51.8995 137.3750 0008480  77.1150 283.0759 14.79936261 46699
KUIPER-00024            
1 63738U 25088Q   26061.43739551  .00000103  00000+0  42576-4 0  9993
2 63738  51.9027 125.1819 0000593  84.7559 275.3471 14.79926171 46988
KUIPER-00025            
1 63739U 25088R   26061.91668981 -.00016623  00000+0 -19816-2 0  9990
2 63739  51.9020 131.4707 0000186  50.7510  88.1074 14.83447571  4379
KUIPER-00027            
1 63740U 25088S   26061.43465380 -.00008396  00000+0 -10739-2 0  9990
2 63740  51.9022 127.6665 0000831  87.6460 272.4598 14.79923531 46547
